#dP2023 10 10 12  0  0.00000000      96 __u+U ITR00 EXT  IAC
## 2283 216000.00000000   900.00000000 60227 0.5000000000000
+  119   C06C07C08C09C10C11C12C13C14C16C19C20C21C22C23C24C25
+        C26C27C28C29C30C32C33C34C35C36C37C38C39C40C41C42C43
+        C44C45C46E02E03E04E05E07E08E09E10E11E12E13E14E15E19
+        E21E24E25E26E27E30E31E33E34E36G01G02G03G04G05G06G07
+        G08G09G10G11G12G13G14G15G16G17G18G19G20G21G22G23G24
+        G25G26G27G28G29G30G31G32J02J03J04R01R02R03R04R05R07
+        R08R09R11R12R13R14R15R16R17R18R19R20R21R22R24R25R26
++        10 10  9  8 10  8  9 10 11  8  8  8  9  8 10 10  9
++         8  7  7  7  6  8  9  8  6  7  8  9 11  9  9  9  9
++         7  9  8  8  6  6  6  7  7  6  9  8  7  7  8  7  6
++         7  8  8  6  7  6  6  7  8  8  7  7  6  7  5  7  8
++         8  7  6 11  6  7  7  5  8  6  6  5  7  7  6  6  6
++         5  7  7  8  7  7  7  6  9  8  9  9  7  8  8  7  8
++         7  6 10  7  9  9  9  9  7  6  8 10  8  6  7  8 10
%c M  cc GPS ccc cccc cccc cccc cccc ccccc ccccc ccccc ccccc
%c cc cc ccc ccc cccc cccc cccc cccc ccccc ccccc ccccc ccccc
%f  0.0000000  0.000000000  0.00000000000  0.000000000000000
%f  0.0000000  0.000000000  0.00000000000  0.000000000000000
%i    0    0    0    0      0      0      0      0         0
%i    0    0    0    0      0      0      0      0         0
/* IAC                                ULTRA-RAPID PREDICTION
/* S/V CLOCKS ARE ALIGNED TO GNSS TIME                      
/* G:C1WC2W R:C1PC2P E:C1XC5X C:C2IC6I J:C1CC2S             
/* PCV:IGS20_2280 OL/AL:FES2004  NONE     YN ORB:CoN CLK:CoN
*  2023 10 11 11  0  0.00000000
PC06 -13678.199426  25617.336240  30497.410034     50.576864
PC07 -11097.856787  40463.880637   5255.730017   -141.063217
PC08    355.487272  26149.820377 -33021.122162    302.309997
PC09  -6019.110867  25324.635723  33490.799132     55.665124
PC10  -5132.314549  42110.606939  -1619.334654   -207.792728
PC11  14603.272140 -18552.012804  14928.839927    197.854145
PC12  25331.652488 -11385.898965  -2589.406333    902.118001
PC13   6052.763104  29732.454013 -28999.346674    365.841713
PC14   6078.561300 -25889.991936   8374.009517    566.751195
PC16 -19886.127997  24623.104825  27947.763724   -120.680509
PC19    157.881642  27902.565094    856.602316   -971.605227
PC20 -10472.465373  21128.526029 -14940.603750    212.619564
PC21  15690.532949   -855.322133  23064.720232   -969.594130
PC22  11250.364282  19033.573632  17026.153245   -271.012349
PC23 -20272.418837 -17914.045398  -6858.575016   -847.552181
PC24  15115.367251  -9124.038250 -21615.697739    482.807226
PC25  -4964.816437 -19120.919891 -19727.924103    230.456964
PC26  25046.243663   4906.616418 -11257.927024   -190.133203
PC27 -25266.406361   5321.381337  10563.227659    211.873439
PC28 -15994.839004  -8258.005174  21333.786141    159.369443
PC29  -4191.653384  18887.570472 -20114.465099    186.265152
PC30 -21122.861356  17278.157177  -5801.730502     -6.306935
PC32 -15692.574366    861.436725 -23054.586565   -529.477888
PC33   -254.204205 -27889.451531   -730.272907   -956.040348
PC34  20268.522486 -17818.846417   7122.760732    278.687996
PC35  16371.961046   7687.503745 -21268.206458    527.695382
PC36   3594.362208  19009.902893  20129.664439   -184.897673
PC37 -25105.952473  -6127.988868  10579.380832   -850.321283
PC38  -8241.914249  22672.381291 -34527.893916    110.442581
PC39 -23933.895020  24918.497222  24042.653671     -5.173916
PC40 -16964.293378  37905.411276   8100.308553    -39.703504
PC41 -10997.276315 -19620.470686 -16470.797396   -873.496617
PC42  11206.945198 -19892.371932  16064.150678   -524.646890
PC43   5119.121647 -19179.793223  19612.527839     43.506267
PC44  25065.075184  -6056.550121 -10709.716908    258.291906
PC45  20586.304346  17705.907073   6377.631673    -34.903435
PC46 -14068.430296   9843.416052  22003.900120    -90.988266
PE02 -17547.849941 -22190.516317   8740.375611     69.403377
PE03 -12079.094175 -12317.483653 -24062.405252    -63.953319
PE04  21222.250110  -7733.591965  19130.196495   -231.794060
PE05   4071.220071 -25189.147861 -15008.261897     26.421903
PE07 -18119.387419  23183.128677  -3268.302006    -81.233450
PE08 -21034.463110   7309.805078 -19512.867329   -159.707657
PE09  18134.654644 -23135.703941   3412.297854   -187.472220
PE10  26350.474078  -6141.828308  11981.580346   -570.319856
PE11  18498.190525 -11725.616624  19904.993062   3073.319312
PE12  29446.757068   -119.364727   3039.176439   -732.089879
PE13 -19143.864088  11367.902474 -19502.754148    -19.700285
PE14   6758.567538 -20807.269440   8661.405062    365.473745
PE15 -29489.439629   -142.982523  -2580.195219    -60.294046
PE19  10058.175739  14545.274692  23735.906562  -1448.490857
PE21   6493.256577  27394.829294   9139.337244   -557.757277
PE24   9411.406107 -16505.297628 -22711.848931   -369.580752
PE25  -6231.663281 -27349.873693  -9451.601910     -3.083843
PE26   3033.154066  16218.646035 -24568.163937    248.034432
PE27  -8939.517574  16968.094388  22550.450015   -171.777867
PE30 -19048.165412  -3796.868918  22336.474666   -570.806398
PE31  18914.447214   3322.122375 -22511.835106     -7.314968
PE33  21936.973393  11671.620742 -16068.759664      0.255755
PE34 -22464.077816 -11356.518233  15586.682788    -71.781686
PE36  -2249.511261 -16060.397965  24766.171148   -128.369576
PG01  13268.832018  13715.281369 -18961.349843    163.877872
PG02   6677.074268  14316.733249 -20880.665916   -543.402633
PG03  12386.070314  23508.974145   1428.368251    -85.494968
PG04   5945.721402  15895.686228  20405.921057    181.285977
PG05  -3345.691991 -23359.655762  11913.717544   -146.075059
PG06  22555.193732  -6410.702931  12632.866917    532.955724
PG07  25375.943163   6415.236343   6295.747244     43.401827
PG08  -1745.164641  21944.080961 -14641.771473   -146.550013
PG09  13843.134998   6629.922089  21592.458974    -35.548054
PG10 -15217.196986   1721.838736 -21557.651308    -56.932915
PG11  11514.005420 -12702.847881  20288.114295   -410.008499
PG12  -9096.549797 -24980.360639  -1212.197815   -434.626448
PG13  11710.269235 -22044.533622  -8951.364068    582.734342
PG14  16926.671457   1911.118495 -20394.261403    210.769740
PG15  -2089.007716 -21783.886578 -15378.356997     86.021686
PG16  -3502.225780  20910.403860  15396.826249   -440.866011
PG17  19797.972284  -8920.574906 -14936.725226    723.850204
PG18 -25927.890474  -4945.437145   3750.153387   -445.341804
PG19  20199.860685 -14774.919653  -8555.468895    383.445536
PG20   5245.987975 -16991.228714  19825.879595    407.393702
PG21   3468.743934  14809.435577 -21322.003419    147.023693
PG22  13792.585399  -5798.621110 -21491.911680    105.026990
PG23 -18059.910561 -11174.905185 -16055.099228     81.017763
PG24  -8920.110373 -14997.948998 -20509.947755   -343.162160
PG25 -16941.198177 -17833.151591  10040.429767    472.176912
PG26 -10014.980931  13181.536863  20582.791332    223.839494
PG27 -12115.047035  23066.844078  -4083.697830    -53.410104
PG28 -23535.776052   6397.292422  10495.984164    -23.591775
PG29 -13017.153921  -7487.668173  21869.099547   -609.998982
PG30  26361.515286   -897.674029  -4042.953950   -479.660037
PG31 -17076.308314  10682.429527  17326.981045   -224.514714
PG32 -19213.441320  13058.553643 -12501.671926   -571.067167
PJ02 -25919.536513  24273.590703  27784.649413     -5.485553
PJ03 -34781.579369  18125.494925 -10851.789070     -4.807067
PJ04 -20288.632170  31316.816420 -14554.884969     71.115413
PR01  -3314.033281 -20867.533500 -14293.225738     67.444256
PR02  -9977.206775  -4758.523596 -22955.664220    -22.391743
PR03 -11441.616068  13938.254478 -17971.741399     86.883425
PR04  -6653.122267  24397.156720  -3245.755857    206.374721
PR05   1682.517561  21716.876767  13253.848791    120.437852
PR07  11385.875428 -14755.646209  17476.857046     66.601083
PR08   6476.138101 -24497.497372   3158.473348    -72.916879
PR09  20940.331098  11784.381939  -8659.469077    147.040591
PR11    907.164437 -12926.934980 -21955.937362   -192.548291
PR12 -14898.440710 -18647.172910  -8993.632445     32.221877
PR13 -20681.736525 -13353.330896   6674.544342    -40.082953
PR14 -14331.989624   1189.211178  21076.755232     25.386042
PR15    158.026257  13818.107421  21463.128537     85.486983
PR16  14849.150800  18537.521586   9359.587695     19.527206
PR17 -23538.250431   9339.310690  -3265.342143     24.790066
PR18 -13120.715504  12606.617365 -17838.670096    106.286778
PR19   2111.772449  10171.313708 -23293.287720   -250.478054
PR20  20955.776202    753.306485 -14534.792360   -101.610861
PR21  23293.508418  -9475.176416   4167.072462    -44.719164
PR22  12514.141246 -12567.330029  18365.026894     88.169298
PR24 -21373.659659     71.326711  13962.568381    -27.789249
PR25  23866.574295  -8347.951110   3271.202528     28.630878
PR26   6502.657435 -24392.919584   3604.030865    -21.020117
EOF
